ONEWEB-0553             
1 56055U 23043K   23295.00001157 -.01223976  00000+0 -78114+0 0  9999
2 56055  87.4090  63.0969 0001591  57.3921 359.3768 14.07008508  5747
ONEWEB-0554             
1 56056U 23043L   23295.25001157 -.01156501  00000+0 -77843+0 0  9994
2 56056  87.4269  62.9432 0003323 122.5706 202.9775 14.03859544 32189
ONEWEB-0555             
1 56057U 23043M   23295.00001157 -.01253042  00000+0 -81466+0 0  9992
2 56057  87.4106  63.0252 0004948  97.2842  63.2994 14.06057266  5719
ONEWEB-0557             
1 56058U 23043N   23294.91667824 -.01203413  00000+0 -79807+0 0  9994
2 56058  87.4232  63.0361 0003612 107.9572  15.9362 14.04818088  5760
ONEWEB-0558             
1 56059U 23043P   23295.15010956  .00000051  00000+0  91006-4 0  9990
2 56059  87.9211  76.8944 0001581  76.1766 283.9544 13.21825100 31137
ONEWEB-0559             
1 56060U 23043Q   23295.13904498 -.00000031  00000+0 -10685-3 0  9996
2 56060  87.9213  76.8980 0002107  78.8403 281.2968 13.21822578 31141
ONEWEB-0566             
1 56061U 23043R   23295.13272948  .00000117  00000+0  25119-3 0  9996
2 56061  87.9206  76.9017 0001557  66.9753 293.1545 13.21826959 31128
ONEWEB-0568             
1 56062U 23043S   23295.25001157 -.01150484  00000+0 -70090+0 0  9992
2 56062  87.4042  63.0504 0004676 101.3579  33.6907 14.09358122 32180
